NORAD_CAT_ID,OBJECT_NAME,OBJECT_TYPE,EPOCH,MEAN_MOTION,ECCENTRICITY,INCLINATION,RA_OF_ASC_NODE,ARG_OF_PERICENTER,MEAN_ANOMALY,BSTAR,MEAN_MOTION_DOT,MEAN_MOTION_DDOT,TLE_LINE0,TLE_LINE1,TLE_LINE2,SEMIMAJOR_AXIS,PERIOD,APOGEE,PERIGEE,DECAYED
53429.0,STARLINK-4543,PAYLOAD,2024-04-29 14:33:06,15.08825887,0.0001318,53.2202,272.7631,100.3937,259.7203,0.00018006,2.578e-05,0.0,0 STARLINK-4543,1 53429U 22097AT  24120.60631945  .00002578  00000-0  18006-3 0  9996,2 53429  53.2202 272.7631 0001318 100.3937 259.7203 15.08825887 96266,6917.924,95.438,540.7,538.877,0.0
53429.0,STARLINK-4543,PAYLOAD,2024-04-29 19:19:14,15.0883801,0.0001129,53.2178,271.8684,110.6243,249.487,0.00014183,1.97e-05,0.0,0 STARLINK-4543,1 53429U 22097AT  24120.80503298  .00001970  00000-0  14183-3 0  9994,2 53429  53.2178 271.8684 0001129 110.6243 249.4870 15.08838010 96291,6917.886,95.438,540.533,538.97,0.0
53429.0,STARLINK-4543,PAYLOAD,2024-04-30 03:16:10,15.08842691,0.0001188,53.2184,270.3819,92.9008,267.212,9.9137e-05,1.29e-05,0.0,0 STARLINK-4543,1 53429U 22097AT  24121.13623256  .00001290  00000-0  99137-4 0  9996,2 53429  53.2184 270.3819 0001188  92.9008 267.2120 15.08842691 95866,6917.872,95.437,540.559,538.915,0.0
53429.0,STARLINK-4543,PAYLOAD,2024-04-30 14:23:53,15.08832627,0.0001177,53.2187,268.2994,92.4698,267.6429,6.9737e-05,8.22e-06,0.0,0 STARLINK-4543,1 53429U 22097AT  24121.59992023  .00000822  00000-0  69737-4 0  9990,2 53429  53.2187 268.2994 0001177  92.4698 267.6429 15.08832627 96413,6917.903,95.438,540.582,538.954,0.0
53429.0,STARLINK-4543,PAYLOAD,2024-04-30 15:59:16,15.08838621,0.0001134,53.2181,268.0014,96.1983,263.9138,2.9891e-05,1.88e-06,0.0,0 STARLINK-4543,1 53429U 22097AT  24121.66615824  .00000188  00000-0  29891-4 0  9991,2 53429  53.2181 268.0014 0001134  96.1983 263.9138 15.08838621 95942,6917.885,95.438,540.534,538.965,0.0
53429.0,STARLINK-4543,PAYLOAD,2024-05-01 03:06:57,15.08848389,0.0001259,53.2168,265.9186,107.5307,252.5823,5.8122e-05,6.37e-06,0.0,0 STARLINK-4543,1 53429U 22097AT  24122.12982870  .00000637  00000-0  58122-4 0  9999,2 53429  53.2168 265.9186 0001259 107.5307 252.5823 15.08848389 96014,6917.855,95.437,540.591,538.849,0.0
53429.0,STARLINK-4543,PAYLOAD,2024-05-01 09:28:29,15.08849476,0.0001268,53.2164,264.7295,109.4431,250.6698,5.3214e-05,5.59e-06,0.0,0 STARLINK-4543,1 53429U 22097AT  24122.39478826  .00000559  00000-0  53214-4 0  9999,2 53429  53.2164 264.7295 0001268 109.4431 250.6698 15.08849476 96531,6917.851,95.437,540.594,538.839,0.0
53429.0,STARLINK-4543,PAYLOAD,2024-05-02 12:30:03,15.08828862,0.0001652,53.2163,259.6756,104.4168,255.7007,-6.0239e-05,-1.246e-05,0.0,0 STARLINK-4543,1 53429U 22097AT  24123.52087921 -.00001246  00000-0 -60239-4 0  9998,2 53429  53.2163 259.6756 0001652 104.4168 255.7007 15.08828862 96226,6917.914,95.438,540.922,538.637,0.0
53429.0,STARLINK-4543,PAYLOAD,2024-05-02 14:05:27,15.08827447,0.0001512,53.2162,259.3777,107.9629,252.1528,-7.5121e-05,-1.483e-05,0.0,0 STARLINK-4543,1 53429U 22097AT  24123.58712053 -.00001483  00000-0 -75121-4 0  9994,2 53429  53.2162 259.3777 0001512 107.9629 252.1528 15.08827447 96711,6917.919,95.438,540.83,538.738,0.0
53429.0,STARLINK-4543,PAYLOAD,2024-05-03 13:56:13,15.08842688,0.00014,53.219,254.9203,90.7832,269.332,3.6913e-05,3e-06,0.0,0 STARLINK-4543,1 53429U 22097AT  24124.58070781  .00000300  00000-0  36913-4 0  9991,2 53429  53.2190 254.9203 0001400  90.7832 269.3320 15.08842688 96385,6917.872,95.437,540.706,538.769,0.0
53429.0,STARLINK-4543,PAYLOAD,2024-05-03 15:31:36,15.08845158,0.0001394,53.2191,254.6228,91.3724,268.7427,5.4196e-05,5.75e-06,0.0,0 STARLINK-4543,1 53429U 22097AT  24124.64694558  .00000575  00000-0  54196-4 0  9999,2 53429  53.2191 254.6228 0001394  91.3724 268.7427 15.08845158 96879,6917.865,95.437,540.694,538.765,0.0
53429.0,STARLINK-4543,PAYLOAD,2024-05-04 01:03:53,15.08935457,0.0001719,53.2191,252.8382,80.3756,279.743,-0.00095673,-0.00015522,0.0,0 STARLINK-4543,1 53429U 22097AT  24125.04437395 -.00015522  00000-0 -95673-3 0  9992,2 53429  53.2191 252.8382 0001719  80.3756 279.7430 15.08935457 96456,6917.589,95.432,540.643,538.264,0.0
53429.0,STARLINK-4543,PAYLOAD,2024-05-04 12:11:38,15.08813749,0.0001268,53.2186,250.7573,86.7401,273.3736,1.7069e-05,-1.6e-07,0.0,0 STARLINK-4543,1 53429U 22097AT  24125.50808841 -.00000016  00000-0  17069-4 0  9996,2 53429  53.2186 250.7573 0001268  86.7401 273.3736 15.08813749 96521,6917.961,95.439,540.703,538.948,0.0
53429.0,STARLINK-4543,PAYLOAD,2024-05-05 00:54:43,15.08833392,0.0001418,53.2187,248.3805,92.7409,267.3746,2.3823e-05,9.1e-07,0.0,0 STARLINK-4543,1 53429U 22097AT  24126.03800032  .00000091  00000-0  23823-4 0  9996,2 53429  53.2187 248.3805 0001418  92.7409 267.3746 15.08833392 96604,6917.901,95.438,540.747,538.785,0.0
53429.0,STARLINK-4543,PAYLOAD,2024-05-05 13:37:47,15.08842141,0.0001376,53.2186,246.0015,94.6014,265.5135,5.8039e-05,6.36e-06,0.0,0 STARLINK-4543,1 53429U 22097AT  24126.56791628  .00000636  00000-0  58039-4 0  9996,2 53429  53.2186 246.0015 0001376  94.6014 265.5135 15.08842141 97163,6917.874,95.437,540.691,538.787,0.0
53429.0,STARLINK-4543,PAYLOAD,2024-05-06 00:45:29,15.08849377,0.0001393,53.2191,243.9203,93.5114,266.6038,9.7875e-05,1.27e-05,0.0,0 STARLINK-4543,1 53429U 22097AT  24127.03158995  .00001270  00000-0  97875-4 0  9999,2 53429  53.2191 243.9203 0001393  93.5114 266.6038 15.08849377 96758,6917.852,95.437,540.68,538.753,0.0
53429.0,STARLINK-4543,PAYLOAD,2024-05-06 11:53:12,15.08831526,0.000187,53.2181,241.8374,84.573,275.5475,0.0002072,3.01e-05,0.0,0 STARLINK-4543,1 53429U 22097AT  24127.49528237  .00003010  00000-0  20720-3 0  9997,2 53429  53.2181 241.8374 0001870  84.5730 275.5475 15.08831526 96826,6917.906,95.438,541.065,538.478,0.0
53429.0,STARLINK-4543,PAYLOAD,2024-05-06 15:03:58,15.08829121,0.0001467,53.2182,241.2422,97.2162,262.8997,0.0002126,3.096e-05,0.0,0 STARLINK-4543,1 53429U 22097AT  24127.62776385  .00003096  00000-0  21260-3 0  9995,2 53429  53.2182 241.2422 0001467  97.2162 262.8997 15.08829121 97329,6917.914,95.438,540.793,538.764,0.0
53429.0,STARLINK-4543,PAYLOAD,2024-05-07 00:36:16,15.08847547,0.0001447,53.2186,239.458,84.8363,275.2794,0.00019601,2.834e-05,0.0,0 STARLINK-4543,1 53429U 22097AT  24128.02519270  .00002834  00000-0  19601-3 0  9993,2 53429  53.2186 239.4580 0001447  84.8363 275.2794 15.08847547 96908,6917.857,95.437,540.723,538.721,0.0
53429.0,STARLINK-4543,PAYLOAD,2024-05-07 13:19:22,15.08826611,0.0001123,53.2182,237.0807,97.3067,262.8052,-0.00012609,-2.293e-05,0.0,0 STARLINK-4543,1 53429U 22097AT  24128.55512549 -.00002293  00000-0 -12609-3 0  9995,2 53429  53.2182 237.0807 0001123  97.3067 262.8052 15.08826611 96987,6917.921,95.438,540.563,539.009,0.0
53429.0,STARLINK-4543,PAYLOAD,2024-05-07 14:54:45,15.08832833,0.0001203,53.2166,236.7817,93.503,266.6099,-9.2986e-05,-1.767e-05,0.0,0 STARLINK-4543,1 53429U 22097AT  24128.62136263 -.00001767  00000-0 -92986-4 0  9990,2 53429  53.2166 236.7817 0001203  93.5030 266.6099 15.08832833 97474,6917.902,95.438,540.6,538.935,0.0
53429.0,STARLINK-4543,PAYLOAD,2024-05-08 13:10:09,15.08842487,0.0001066,53.2159,232.6161,93.1952,266.9162,0.00010953,1.456e-05,0.0,0 STARLINK-4543,1 53429U 22097AT  24129.54872258  .00001456  00000-0  10953-3 0  9999,2 53429  53.2159 232.6161 0001066  93.1952 266.9162 15.08842487 97615,6917.873,95.437,540.475,539.0,0.0
53429.0,STARLINK-4543,PAYLOAD,2024-05-09 00:17:51,15.08854521,0.0001126,53.2165,230.5366,88.9253,271.1868,0.0002887,4.312e-05,0.0,0 STARLINK-4543,1 53429U 22097AT  24130.01239641  .00004312  00000-0  28870-3 0  9997,2 53429  53.2165 230.5366 0001126  88.9253 271.1868 15.08854521 97207,6917.836,95.437,540.48,538.922,0.0
53429.0,STARLINK-4543,PAYLOAD,2024-05-09 13:00:56,15.08846491,0.0001374,53.2167,228.1554,104.3446,255.7699,0.00025708,3.807e-05,0.0,0 STARLINK-4543,1 53429U 22097AT  24130.54232154  .00003807  00000-0  25708-3 0  9992,2 53429  53.2167 228.1554 0001374 104.3446 255.7699 15.08846491 97288,6917.861,95.437,540.676,538.775,0.0
53429.0,STARLINK-4543,PAYLOAD,2024-05-10 12:51:43,15.08841741,0.0001227,53.2175,223.6949,85.6303,274.4829,4.1354e-05,3.7e-06,0.0,0 STARLINK-4543,1 53429U 22097AT  24131.53592423  .00000370  00000-0  41354-4 0  9998,2 53429  53.2175 223.6949 0001227  85.6303 274.4829 15.08841741 97438,6917.875,95.437,540.589,538.891,0.0
53429.0,STARLINK-4543,PAYLOAD,2024-05-11 12:42:26,15.08933344,0.0001341,53.2156,219.2351,86.3575,273.757,0.0013159,0.0002077,0.0,0 STARLINK-4543,1 53429U 22097AT  24132.52947104  .00020770  00000-0  13159-2 0  9994,2 53429  53.2156 219.2351 0001341  86.3575 273.7570 15.08933344 97583,6917.595,95.432,540.388,538.532,0.0
53429.0,STARLINK-4543,PAYLOAD,2024-05-11 15:53:13,15.08907117,0.0001406,53.2163,218.6428,79.2078,280.9072,0.00096291,0.00015098,0.0,0 STARLINK-4543,1 53429U 22097AT  24132.66195870  .00015098  00000-0  96291-3 0  9990,2 53429  53.2163 218.6428 0001406  79.2078 280.9072 15.08907117 97609,6917.675,95.433,540.513,538.568,0.0
53429.0,STARLINK-4543,PAYLOAD,2024-05-11 22:14:47,15.08852903,0.0001816,53.2174,217.4517,79.9374,280.1823,-0.0001504,-2.682e-05,0.0,0 STARLINK-4543,1 53429U 22097AT  24132.92693483 -.00002682  00000-0 -15040-3 0  9992,2 53429  53.2174 217.4517 0001816  79.9374 280.1823 15.08852903 98124,6917.841,95.437,540.962,538.45,0.0
53429.0,STARLINK-4543,PAYLOAD,2024-05-12 06:11:44,15.0879471,9.78e-05,53.2162,215.9622,61.9933,298.1158,-0.0011612,-0.00018697,0.0,0 STARLINK-4543,1 53429U 22097AT  24133.25815876 -.00018697  00000-0 -11612-2 0  9994,2 53429  53.2162 215.9622 0000978  61.9933 298.1158 15.08794710 97693,6918.019,95.44,540.56,539.207,0.0
53429.0,STARLINK-4543,PAYLOAD,2024-05-12 12:33:18,15.08778543,0.0001327,53.2165,214.7751,68.7711,291.3422,-0.0013355,-0.00021444,0.0,0 STARLINK-4543,1 53429U 22097AT  24133.52313184 -.00021444  00000-0 -13355-2 0  9999,2 53429  53.2165 214.7751 0001327  68.7711 291.3422 15.08778543 98218,6918.068,95.441,540.851,539.015,0.0
